SIRION PATHFINDER-2     
1 43759U 18099B   26163.09443395  .00004355  00000+0  23993-3 0  9995
2 43759  97.4258 212.2727 0007573 325.8015  34.2728 15.14503139411851
CORVUS BC4              
1 43767U 18099K   26163.09410001  .00003443  00000+0  20154-3 0  9995
2 43767  97.4071 206.2233 0008844  30.0486 330.1251 15.12454193411635
M2 PATHFINDER           
1 45727U 20037E   26163.25876297  .00002355  00000+0  17181-3 0  9996
2 45727  97.8155 354.4355 0012066 161.7427 198.4235 15.04657894324756
NETSAT-4                
1 46504U 20068U   26163.00420917  .00016437  00000+0  36610-3 0  9995
2 46504  97.8603 170.8288 0004497   1.0103 359.1152 15.43693540314977
NETSAT-3                
1 46505U 20068V   26163.26597576  .00019599  00000+0  45347-3 0  9999
2 46505  97.8651 169.3342 0004926  19.4008 340.7424 15.42511716314925
NETSAT-1                
1 46506U 20068W   26163.24500041  .00013288  00000+0  39945-3 0  9995
2 46506  97.8742 163.7008 0005620  46.6964 313.4746 15.34529137314548
NETSAT-2                
1 46507U 20068X   26162.98660622  .00021996  00000+0  45562-3 0  9995
2 46507  97.8617 170.6854 0004141  41.3390 318.8171 15.45775798314930
GREENCUBE (IO-117)      
1 53109U 22080E   26152.46502029 -.00000003  00000+0  00000+0 0  9996
2 53109  70.1435 303.7143 0008869 293.3663  66.6064  6.42583280 91055
SITRO-AIS 5 (KATYS)     
1 57176U 23091L   26163.22838585  .00013113  00000+0  46204-3 0  9997
2 57176  97.5069 227.0805 0012777 118.6872 241.5655 15.29345180163584
SITRO-AIS 6 (CHIRKIN)   
1 57192U 23091AC  26163.26150345  .00010825  00000+0  42466-3 0  9993
2 57192  97.5076 226.2592 0013074 121.6650 238.5865 15.25842340163533
SITRO-AIS 8 (ANOKHIN)   
1 57193U 23091AD  26163.25404813  .00016344  00000+0  52982-3 0  9991
2 57193  97.5066 228.6754 0011877 115.1531 245.0944 15.32004225163692
SITRO-AIS 7 (FARTUSHNIY)
1 57194U 23091AE  26163.26364858  .00010734  00000+0  42508-3 0  9997
2 57194  97.5074 226.0888 0012916 122.5657 237.6830 15.25532193163523
SITRO-AIS 10 (BURDAEV)  
1 57199U 23091AK  26163.24122859  .00021933  00000+0  57945-3 0  9997
2 57199  97.5089 233.6655 0007774  94.8845 265.3287 15.38425449164003
SITRO-AIS 9 (SHCHUKIN)  
1 57201U 23091AM  26163.26606233  .00021196  00000+0  56885-3 0  9999
2 57201  97.5087 233.4246 0008032  94.8642 265.3519 15.37944845163992
SITRO-AIS 12 (SMIRENNIY)
1 57204U 23091AQ  26163.25761467  .00020836  00000+0  55413-3 0  9998
2 57204  97.5101 233.8800 0007604  90.0626 270.1490 15.38232970164012
SITRO-AIS 11 (SHEFFER)  
1 57208U 23091AU  26163.27238704  .00021478  00000+0  56330-3 0  9999
2 57208  97.5099 234.1387 0007511  89.8215 270.3891 15.38656121164030
SITRO-AIS 25            
1 59066U 24039R   26163.28423639  .00002870  00000+0  22510-3 0  9998
2 59066  95.3915 231.7230 0144073 346.0664  13.6603 14.93490595123998
SITRO-AIS 26            
1 59067U 24039S   26163.28494068  .00002689  00000+0  21210-3 0  9997
2 59067  95.3916 231.6223 0144420 346.6371  13.1045 14.93286915123981
SITRO-AIS 27            
1 59068U 24039T   26163.25656208  .00003147  00000+0  24561-3 0  9993
2 59068  95.3915 231.8721 0143425 345.3081  14.3995 14.93703724124007
SITRO-AIS 28            
1 59071U 24039U   26163.23411152  .00002596  00000+0  20290-3 0  9994
2 59071  95.3918 231.9037 0143368 345.2477  14.4584 14.93738099124007
GRBBETA                 
1 60237U 24128C   26163.30874678  .00003491  00000+0  24457-3 0  9997
2 60237  61.9896 233.3818 0041287 133.6112 226.8419 15.06609302105534
OOV-CUBE (TUBSAT-30)    
1 60240U 24128F   26162.59923854  .00001977  00000+0  15980-3 0  9990
2 60240  61.9950 245.0577 0045327 132.4986 227.9949 15.02751187105272
ROBUSTA-3A (MEDITERRAN*)
1 60243U 24128J   26163.30603974  .00007007  00000+0  41454-3 0  9996
2 60243  61.9860 225.5052 0041864 127.2589 233.2336 15.11623087105681
LASARSAT                
1 62391U 24247Q   26163.06628026  .00032134  00000+0  64660-3 0  9995
2 62391  44.9753 290.9829 0008403 302.5447  57.4631 15.46059259 82523
CROCUBE                 
1 62394U 24247T   26163.26391119  .00040736  00000+0  76592-3 0  9994
2 62394  44.9724 287.2870 0008260 307.3288  52.6849 15.47921042 82589
FORESAIL-1 PRIME        
1 66778U 25276DS  26163.18669092  .00004559  00000+0  22325-3 0  9994
2 66778  97.4203 236.5489 0003864 113.4472 246.7169 15.18657242 29648
KNACKSAT-2              
1 67683U 98067XZ  26162.71234266  .00046941  00000+0  58268-3 0  9993
2 67683  51.6308 322.0071 0009845 191.1847 168.8928 15.59478995 19427
